IRIDIUM 150             
1 43257U 18030J   24023.27415499  .00000561  00000+0  19335-3 0  9990
2 43257  86.3975 296.5334 0001653  81.6155 278.5228 14.34221348304614
IRIDIUM 143             
1 43258U 18030K   24023.25513040  .00000223  00000+0  72683-4 0  9991
2 43258  86.3979 296.5991 0001689  89.2295 270.9094 14.34218125304544
IRIDIUM 161             
1 43478U 18047C   24023.24308108  .00000092  00000+0  21258-4 0  9995
2 43478  86.4476  94.5844 0002085  87.4359 272.7081 14.43294942298792
IRIDIUM 152             
1 43479U 18047D   24023.29761877  .00000586  00000+0  20223-3 0  9995
2 43479  86.3950  94.4210 0002070  97.9106 262.2325 14.34218510296942
IRIDIUM 147             
1 43480U 18047E   24023.23419401  .00000411  00000+0  13965-3 0  9996
2 43480  86.3950  94.4371 0002244  86.7060 273.4393 14.34217071296939
IRIDIUM 110             
1 43481U 18047F   24023.24053599  .00000125  00000+0  37399-4 0  9990
2 43481  86.3953  94.5038 0002214  79.8120 280.3325 14.34217956296924
IRIDIUM 162             
1 43482U 18047G   24023.23681821  .00000665  00000+0  19150-3 0  9998
2 43482  86.4473  94.4888 0002176  93.3723 266.7727 14.43312231298784
IRIDIUM 160             
1 43569U 18061A   24023.18637189  .00000182  00000+0  58051-4 0  9990
2 43569  86.3934  62.8727 0002632  97.2155 262.9340 14.34218093287813
